LEMUR-2-AMANDA-SVANTE   
1 48269U 21034B   26068.77637527  .00030872  00000+0  11134-2 0  9996
2 48269  97.5829 144.8625 0002703 205.4721 154.6385 15.28469003265849
STARLINK-36517          
1 67454U 26008K   26068.45583027  .00024458  00000+0  89482-3 0  9994
2 67454  42.9956 206.7869 0002153 179.3170 180.7685 15.27599223  9537
